NORAD_CAT_ID,OBJECT_NAME,OBJECT_TYPE,EPOCH,MEAN_MOTION,ECCENTRICITY,INCLINATION,RA_OF_ASC_NODE,ARG_OF_PERICENTER,MEAN_ANOMALY,BSTAR,MEAN_MOTION_DOT,MEAN_MOTION_DDOT,TLE_LINE0,TLE_LINE1,TLE_LINE2,SEMIMAJOR_AXIS,PERIOD,APOGEE,PERIGEE,DECAYED
53037.0,STARLINK-4153,PAYLOAD,2023-02-26 06:35:58,15.08855919,0.0001425,53.2168,5.5029,93.4406,266.6749,0.00052025,8.005e-05,0.0,0 STARLINK-4153,1 53037U 22076BD  23057.27498509  .00008005  00000-0  52025-3 0  9996,2 53037  53.2168   5.5029 0001425  93.4406 266.6749 15.08855919 35946,6917.832,95.437,540.683,538.711,0.0
53037.0,STARLINK-4153,PAYLOAD,2023-02-26 20:54:27,15.0884795,0.0001438,53.2162,2.8257,96.7571,263.3585,0.00029789,4.457e-05,0.0,0 STARLINK-4153,1 53037U 22076BD  23057.87114831  .00004457  00000-0  29789-3 0  9993,2 53037  53.2162   2.8257 0001438  96.7571 263.3585 15.08847950 36495,6917.856,95.437,540.716,538.726,0.0
53037.0,STARLINK-4153,PAYLOAD,2023-02-27 04:51:22,15.08869013,0.0001111,53.2164,1.339,83.8748,276.2371,0.00098412,0.00015421,0.0,0 STARLINK-4153,1 53037U 22076BD  23058.20234288  .00015421  00000-0  98412-3 0  9992,2 53037  53.2164   1.3390 0001111  83.8748 276.2371 15.08869013 36546,6917.792,95.436,540.425,538.888,0.0
53037.0,STARLINK-4153,PAYLOAD,2023-02-27 06:26:45,15.08876371,0.0001092,53.2164,1.0415,81.539,278.5726,0.0013389,0.00021106,0.0,0 STARLINK-4153,1 53037U 22076BD  23058.26858119  .00021106  00000-0  13389-2 0  9999,2 53037  53.2164   1.0415 0001092  81.5390 278.5726 15.08876371 36091,6917.769,95.435,540.39,538.879,0.0
53037.0,STARLINK-4153,PAYLOAD,2023-02-27 20:45:12,15.08883359,0.0001209,53.2152,358.3649,95.9696,264.1434,0.0015465,0.0002444,0.0,0 STARLINK-4153,1 53037U 22076BD  23058.86473340  .00024440  00000-0  15465-2 0  9995,2 53037  53.2152 358.3649 0001209  95.9696 264.1434 15.08883359 36184,6917.748,95.435,540.449,538.777,0.0
53037.0,STARLINK-4153,PAYLOAD,2023-02-28 06:17:30,15.08932569,0.0001108,53.2161,356.581,104.111,256.0005,0.0030331,0.00048439,0.0,0 STARLINK-4153,1 53037U 22076BD  23059.26215326  .00048439  00000-0  30331-2 0  9991,2 53037  53.2161 356.5810 0001108 104.1110 256.0005 15.08932569 36706,6917.597,95.432,540.229,538.696,0.0
53037.0,STARLINK-4153,PAYLOAD,2023-03-01 04:32:56,15.08801931,0.0001111,53.2155,352.4187,57.1425,302.9674,0.0019215,0.00030393,0.0,0 STARLINK-4153,1 53037U 22076BD  23060.18954137  .00030393  00000-0  19215-2 0  9992,2 53037  53.2155 352.4187 0001111  57.1425 302.9674 15.08801931 36847,6917.997,95.44,540.63,539.093,0.0
53037.0,STARLINK-4153,PAYLOAD,2023-03-01 07:43:42,15.08810333,0.0001146,53.2154,351.824,58.0633,302.0471,0.002601,0.00041316,0.0,0 STARLINK-4153,1 53037U 22076BD  23060.32202544  .00041316  00000-0  26010-2 0  9994,2 53037  53.2154 351.8240 0001146  58.0633 302.0471 15.08810333 36402,6917.971,95.439,540.629,539.043,0.0
53037.0,STARLINK-4153,PAYLOAD,2023-03-02 02:48:21,15.08840202,0.0001326,53.2156,348.2571,55.8094,304.3024,0.0013852,0.00021826,0.0,0 STARLINK-4153,1 53037U 22076BD  23061.11691436  .00021826  00000-0  13852-2 0  9998,2 53037  53.2156 348.2571 0001326  55.8094 304.3024 15.08840202 36987,6917.88,95.438,540.662,538.827,0.0
53037.0,STARLINK-4153,PAYLOAD,2023-03-02 04:23:44,15.08845125,0.0001283,53.2156,347.9588,57.3626,302.749,0.0014814,0.0002337,0.0,0 STARLINK-4153,1 53037U 22076BD  23061.18315364  .00023370  00000-0  14814-2 0  9993,2 53037  53.2156 347.9588 0001283  57.3626 302.7490 15.08845125 36530,6917.865,95.437,540.617,538.842,0.0
53037.0,STARLINK-4153,PAYLOAD,2023-03-03 04:14:31,15.08877391,0.0001412,53.216,343.4969,63.3522,296.7614,0.0017556,0.00027792,0.0,0 STARLINK-4153,1 53037U 22076BD  23062.17674975  .00027792  00000-0  17556-2 0  9997,2 53037  53.2160 343.4969 0001412  63.3522 296.7614 15.08877391 37143,6917.766,95.435,540.608,538.654,0.0
53037.0,STARLINK-4153,PAYLOAD,2023-03-03 18:32:59,15.08862836,0.0001362,53.2165,340.8221,77.039,283.0754,0.0020424,0.00032387,0.0,0 STARLINK-4153,1 53037U 22076BD  23062.77290747  .00032387  00000-0  20424-2 0  9998,2 53037  53.2165 340.8221 0001362  77.0390 283.0754 15.08862836 37231,6917.811,95.436,540.618,538.733,0.0
53037.0,STARLINK-4153,PAYLOAD,2023-03-04 04:05:17,15.08896985,0.0001552,53.2169,339.0367,75.5038,284.6126,0.0025214,0.00040132,0.0,0 STARLINK-4153,1 53037U 22076BD  23063.17033726  .00040132  00000-0  25214-2 0  9994,2 53037  53.2169 339.0367 0001552  75.5038 284.6126 15.08896985 37297,6917.706,95.434,540.645,538.498,0.0
53037.0,STARLINK-4153,PAYLOAD,2023-03-04 18:23:45,15.08861794,0.0001358,53.2168,336.3607,98.6203,261.4943,0.0009146,0.00014306,0.0,0 STARLINK-4153,1 53037U 22076BD  23063.76649559  .00014306  00000-0  91460-3 0  9997,2 53037  53.2168 336.3607 0001358  98.6203 261.4943 15.08861794 37387,6917.814,95.436,540.618,538.739,0.0
53037.0,STARLINK-4153,PAYLOAD,2023-03-05 00:45:17,15.08845509,0.000102,53.2181,335.1719,93.826,266.2848,0.00095584,0.00014959,0.0,0 STARLINK-4153,1 53037U 22076BD  23064.03145733  .00014959  00000-0  95584-3 0  9998,2 53037  53.2181 335.1719 0001020  93.8260 266.2848 15.08845509 37427,6917.864,95.437,540.434,539.023,0.0
53037.0,STARLINK-4153,PAYLOAD,2023-03-05 21:25:19,15.08840736,0.0001439,53.2158,331.3044,87.9554,272.1603,0.0013141,0.00020688,0.0,0 STARLINK-4153,1 53037U 22076BD  23064.89258658  .00020688  00000-0  13141-2 0  9997,2 53037  53.2158 331.3044 0001439  87.9554 272.1603 15.08840736 37550,6917.878,95.438,540.739,538.748,0.0
53037.0,STARLINK-4153,PAYLOAD,2023-03-06 18:05:21,15.08814235,0.000193,53.2145,327.4381,82.1682,277.953,0.00099614,0.0001559,0.0,0 STARLINK-4153,1 53037U 22076BD  23065.75372284  .00015590  00000-0  99614-3 0  9991,2 53037  53.2145 327.4381 0001930  82.1682 277.9530 15.08814235 37682,6917.959,95.439,541.159,538.489,0.0
53037.0,STARLINK-4153,PAYLOAD,2023-03-07 03:37:40,15.08833088,8.95e-05,53.2152,325.6565,80.0762,280.0331,0.0018835,0.00029809,0.0,0 STARLINK-4153,1 53037U 22076BD  23066.15116635  .00029809  00000-0  18835-2 0  9995,2 53037  53.2152 325.6565 0000895  80.0762 280.0331 15.08833088 37747,6917.902,95.438,540.386,539.147,0.0
53037.0,STARLINK-4153,PAYLOAD,2023-03-08 03:28:26,15.08886183,8.62e-05,53.2144,321.1958,79.0586,281.0503,0.0019572,0.00031038,0.0,0 STARLINK-4153,1 53037U 22076BD  23067.14475384  .00031038  00000-0  19572-2 0  9990,2 53037  53.2144 321.1958 0000862  79.0586 281.0503 15.08886183 37433,6917.739,95.435,540.201,539.008,0.0
53037.0,STARLINK-4153,PAYLOAD,2023-03-09 00:08:28,15.08850494,8.25e-05,53.2138,317.33,128.1825,231.9242,0.0025283,0.00040191,0.0,0 STARLINK-4153,1 53037U 22076BD  23068.00588247  .00040191  00000-0  25283-2 0  9995,2 53037  53.2138 317.3300 0000825 128.1825 231.9242 15.08850494 38021,6917.848,95.437,540.284,539.143,0.0
53037.0,STARLINK-4153,PAYLOAD,2023-03-09 16:02:19,15.08826046,7.98e-05,53.2153,314.3545,126.4654,233.6412,0.0031579,0.00050309,0.0,0 STARLINK-4153,1 53037U 22076BD  23068.66828529  .00050309  00000-0  31579-2 0  9994,2 53037  53.2153 314.3545 0000798 126.4654 233.6412 15.08826046 38121,6917.923,95.438,540.34,539.236,0.0
53037.0,STARLINK-4153,PAYLOAD,2023-03-09 22:23:52,15.08858119,8.04e-05,53.214,313.1676,84.2242,275.8842,0.0025669,0.00040821,0.0,0 STARLINK-4153,1 53037U 22076BD  23068.93324309  .00040821  00000-0  25669-2 0  9992,2 53037  53.2140 313.1676 0000804  84.2242 275.8842 15.08858119 37705,6917.825,95.436,540.246,539.134,0.0
53037.0,STARLINK-4153,PAYLOAD,2023-03-10 09:31:34,15.0885971,8.3e-05,53.2122,311.0851,42.1127,317.9929,0.0014133,0.00022288,0.0,0 STARLINK-4153,1 53037U 22076BD  23069.39692200  .00022288  00000-0  14133-2 0  9992,2 53037  53.2122 311.0851 0000830  42.1127 317.9929 15.08859710 38232,6917.82,95.436,540.259,539.111,0.0
53037.0,STARLINK-4153,PAYLOAD,2023-03-10 22:14:40,15.0881389,9.07e-05,53.215,308.7064,42.28,317.8262,0.0013113,0.00020628,0.0,0 STARLINK-4153,1 53037U 22076BD  23069.92685427  .00020628  00000-0  13113-2 0  9997,2 53037  53.2150 308.7064 0000907  42.2800 317.8262 15.08813890 37851,6917.96,95.439,540.453,539.198,0.0
53037.0,STARLINK-4153,PAYLOAD,2023-03-11 01:25:26,15.08826058,0.000113,53.2146,308.1101,58.863,301.2473,0.0017746,0.00028057,0.0,0 STARLINK-4153,1 53037U 22076BD  23070.05933548  .00028057  00000-0  17746-2 0  9993,2 53037  53.2146 308.1101 0001130  58.8630 301.2473 15.08826058 38330,6917.923,95.438,540.57,539.006,0.0
53037.0,STARLINK-4153,PAYLOAD,2023-03-12 01:16:12,15.0888472,0.000113,53.2143,303.6493,54.57,305.5397,0.0016744,0.00026493,0.0,0 STARLINK-4153,1 53037U 22076BD  23071.05292243  .00026493  00000-0  16744-2 0  9993,2 53037  53.2143 303.6493 0001130  54.5700 305.5397 15.08884720 38020,6917.744,95.435,540.39,538.827,0.0
53037.0,STARLINK-4153,PAYLOAD,2023-03-13 01:07:00,15.08859351,0.0002614,53.2157,299.1885,60.7974,299.3279,0.0014309,0.00022571,0.0,0 STARLINK-4153,1 53037U 22076BD  23072.04652834  .00022571  00000-0  14309-2 0  9997,2 53037  53.2157 299.1885 0002614  60.7974 299.3279 15.08859351 38637,6917.821,95.436,541.495,537.878,0.0
53037.0,STARLINK-4153,PAYLOAD,2023-03-13 05:53:09,15.08828293,0.0001389,53.2159,298.2949,47.2324,312.8785,0.001592,0.00025131,0.0,0 STARLINK-4153,1 53037U 22076BD  23072.24524412  .00025131  00000-0  15920-2 0  9994,2 53037  53.2159 298.2949 0001389  47.2324 312.8785 15.08828293 38664,6917.916,95.438,540.742,538.82,0.0
53037.0,STARLINK-4153,PAYLOAD,2023-03-14 00:57:47,15.08822932,9.03e-05,53.216,294.7282,169.1711,190.9301,0.00078848,0.00012277,0.0,0 STARLINK-4153,1 53037U 22076BD  23073.04013256  .00012277  00000-0  78848-3 0  9998,2 53037  53.2160 294.7282 0000903 169.1711 190.9301 15.08822932 38788,6917.933,95.439,540.422,539.173,0.0
53037.0,STARLINK-4153,PAYLOAD,2023-03-14 21:37:48,15.0886345,4.79e-05,53.2159,290.8638,108.3429,251.7615,0.0013094,0.00020626,0.0,0 STARLINK-4153,1 53037U 22076BD  23073.90125105  .00020626  00000-0  13094-2 0  9998,2 53037  53.2159 290.8638 0000479 108.3429 251.7615 15.08863450 38916,6917.809,95.436,540.005,539.342,0.0
